NORAD_CAT_ID,OBJECT_NAME,OBJECT_TYPE,EPOCH,MEAN_MOTION,ECCENTRICITY,INCLINATION,RA_OF_ASC_NODE,ARG_OF_PERICENTER,MEAN_ANOMALY,BSTAR,MEAN_MOTION_DOT,MEAN_MOTION_DDOT,TLE_LINE0,TLE_LINE1,TLE_LINE2,SEMIMAJOR_AXIS,PERIOD,APOGEE,PERIGEE,DECAYED
53419.0,STARLINK-4476,PAYLOAD,2024-08-04 07:13:39,15.08842071,0.000148,53.217,208.564,90.344,269.7722,4.3287e-05,4.01e-06,0.0,0 STARLINK-4476,1 53419U 22097AH  24217.30115650  .00000401  00000-0  43287-4 0  9992,2 53419  53.2170 208.5640 0001480  90.3440 269.7722 15.08842071110700,6917.874,95.437,540.763,538.715,0.0
53419.0,STARLINK-4476,PAYLOAD,2024-08-04 23:07:30,15.08846087,0.0001672,53.2167,205.5913,84.5723,275.546,7.5701e-05,9.17e-06,0.0,0 STARLINK-4476,1 53419U 22097AH  24217.96355168  .00000917  00000-0  75701-4 0  9992,2 53419  53.2167 205.5913 0001672  84.5723 275.5460 15.08846087110804,6917.862,95.437,540.883,538.57,0.0
53419.0,STARLINK-4476,PAYLOAD,2024-08-05 05:29:03,15.0884465,0.0001418,53.2164,204.399,91.4814,268.634,9.1222e-05,1.164e-05,0.0,0 STARLINK-4476,1 53419U 22097AH  24218.22851162  .00001164  00000-0  91222-4 0  9998,2 53419  53.2164 204.3990 0001418  91.4814 268.6340 15.08844650110386,6917.866,95.437,540.712,538.75,0.0
53419.0,STARLINK-4476,PAYLOAD,2024-08-05 16:36:45,15.08847218,0.000149,53.2164,202.3173,96.0066,264.1096,6.9847e-05,8.24e-06,0.0,0 STARLINK-4476,1 53419U 22097AH  24218.69218827  .00000824  00000-0  69847-4 0  9994,2 53419  53.2164 202.3173 0001490  96.0066 264.1096 15.08847218110918,6917.858,95.437,540.754,538.693,0.0
53419.0,STARLINK-4476,PAYLOAD,2024-08-06 05:19:51,15.08828989,0.0001491,53.217,199.9375,103.5511,256.5648,-1.1609e-05,-4.73e-06,0.0,0 STARLINK-4476,1 53419U 22097AH  24219.22212425 -.00000473  00000-0 -11609-4 0  9997,2 53419  53.2170 199.9375 0001491 103.5511 256.5648 15.08828989110530,6917.914,95.438,540.811,538.748,0.0
53419.0,STARLINK-4476,PAYLOAD,2024-08-06 08:30:37,15.08832071,0.0001522,53.2173,199.3423,105.5713,254.5447,-5.5897e-05,-1.177e-05,0.0,0 STARLINK-4476,1 53419U 22097AH  24219.35460389 -.00001177  00000-0 -55897-4 0  9994,2 53419  53.2173 199.3423 0001522 105.5713 254.5447 15.08832071111018,6917.905,95.438,540.823,538.717,0.0
53419.0,STARLINK-4476,PAYLOAD,2024-08-06 16:27:33,15.08837008,0.0001487,53.2172,197.8572,100.3045,259.8115,-2.9704e-05,-7.61e-06,0.0,0 STARLINK-4476,1 53419U 22097AH  24219.68580117 -.00000761  00000-0 -29704-4 0  9998,2 53419  53.2172 197.8572 0001487 100.3045 259.8115 15.08837008110605,6917.89,95.438,540.783,538.726,0.0
53419.0,STARLINK-4476,PAYLOAD,2024-08-07 01:59:51,15.08836888,0.0001469,53.2164,196.0729,102.1695,257.9462,7.5272e-05,9.1e-06,0.0,0 STARLINK-4476,1 53419U 22097AH  24220.08323961  .00000910  00000-0  75272-4 0  9991,2 53419  53.2164 196.0729 0001469 102.1695 257.9462 15.08836888111129,6917.89,95.438,540.771,538.739,0.0
53419.0,STARLINK-4476,PAYLOAD,2024-08-08 03:26:02,15.08842266,0.0001547,53.2164,191.3145,107.4914,252.6247,0.00029903,4.475e-05,0.0,0 STARLINK-4476,1 53419U 22097AH  24221.14308139  .00004475  00000-0  29903-3 0  9998,2 53419  53.2164 191.3145 0001547 107.4914 252.6247 15.08842266111285,6917.873,95.437,540.809,538.668,0.0
53419.0,STARLINK-4476,PAYLOAD,2024-08-08 22:30:39,15.08843974,0.0001563,53.2168,187.746,109.7266,250.3894,0.00013098,1.797e-05,0.0,0 STARLINK-4476,1 53419U 22097AH  24221.93795989  .00001797  00000-0  13098-3 0  9990,2 53419  53.2168 187.7460 0001563 109.7266 250.3894 15.08843974110943,6917.868,95.437,540.815,538.652,0.0
53419.0,STARLINK-4476,PAYLOAD,2024-08-09 04:52:12,15.08836563,0.0001328,53.2157,186.5573,91.4407,268.6737,3.9407e-05,3.39e-06,0.0,0 STARLINK-4476,1 53419U 22097AH  24222.20292399  .00000339  00000-0  39407-4 0  9992,2 53419  53.2157 186.5573 0001328  91.4407 268.6737 15.08836563110984,6917.891,95.438,540.675,538.837,0.0
53419.0,STARLINK-4476,PAYLOAD,2024-08-09 08:02:59,15.08839511,0.000127,53.2165,185.9624,88.4532,271.6605,3.515e-05,2.72e-06,0.0,0 STARLINK-4476,1 53419U 22097AH  24222.33540522  .00000272  00000-0  35150-4 0  9997,2 53419  53.2165 185.9624 0001270  88.4532 271.6605 15.08839511111462,6917.882,95.438,540.625,538.868,0.0
53419.0,STARLINK-4476,PAYLOAD,2024-08-09 14:24:30,15.08855458,0.0001308,53.2175,184.7747,100.2532,259.8608,0.00013336,1.836e-05,0.0,0 STARLINK-4476,1 53419U 22097AH  24222.60035142  .00001836  00000-0  13336-3 0  9992,2 53419  53.2175 184.7747 0001308 100.2532 259.8608 15.08855458111044,6917.833,95.437,540.603,538.793,0.0
53419.0,STARLINK-4476,PAYLOAD,2024-08-09 22:21:28,15.08828138,0.0001165,53.2167,183.2857,85.7905,274.322,-4.6299e-05,-1.024e-05,0.0,0 STARLINK-4476,1 53419U 22097AH  24222.93157448 -.00001024  00000-0 -46299-4 0  9998,2 53419  53.2167 183.2857 0001165  85.7905 274.3220 15.08828138111556,6917.917,95.438,540.588,538.976,0.0
53419.0,STARLINK-4476,PAYLOAD,2024-08-10 04:42:59,15.08841468,0.0001275,53.2169,182.0964,84.1129,276.0009,6.0415e-05,6.74e-06,0.0,0 STARLINK-4476,1 53419U 22097AH  24223.19652379  .00000674  00000-0  60415-4 0  9994,2 53419  53.2169 182.0964 0001275  84.1129 276.0009 15.08841468111136,6917.876,95.437,540.623,538.859,0.0
53419.0,STARLINK-4476,PAYLOAD,2024-08-11 04:33:46,15.08843417,0.0001453,53.2169,177.6377,95.0755,265.0403,0.00017801,2.546e-05,0.0,0 STARLINK-4476,1 53419U 22097AH  24224.19012165  .00002546  00000-0  17801-3 0  9998,2 53419  53.2169 177.6377 0001453  95.0755 265.0403 15.08843417111747,6917.87,95.437,540.74,538.73,0.0
53419.0,STARLINK-4476,PAYLOAD,2024-08-12 04:24:33,15.08846657,0.0001426,53.2171,173.1774,88.4231,271.6925,0.00016686,2.369e-05,0.0,0 STARLINK-4476,1 53419U 22097AH  24225.18372235  .00002369  00000-0  16686-3 0  9998,2 53419  53.2171 173.1774 0001426  88.4231 271.6925 15.08846657111434,6917.86,95.437,540.712,538.739,0.0
53419.0,STARLINK-4476,PAYLOAD,2024-08-12 13:56:51,15.08865177,0.0001253,53.217,171.3922,95.531,264.5825,0.0003607,5.461e-05,0.0,0 STARLINK-4476,1 53419U 22097AH  24225.58114665  .00005461  00000-0  36070-3 0  9998,2 53419  53.2170 171.3922 0001253  95.5310 264.5825 15.08865177111958,6917.803,95.436,540.535,538.802,0.0
53419.0,STARLINK-4476,PAYLOAD,2024-08-12 20:18:24,15.08845483,0.0001725,53.2164,170.2035,91.1412,268.9777,6.7963e-05,7.94e-06,0.0,0 STARLINK-4476,1 53419U 22097AH  24225.84611749  .00000794  00000-0  67963-4 0  9992,2 53419  53.2164 170.2035 0001725  91.1412 268.9777 15.08845483111999,6917.864,95.437,540.922,538.535,0.0
53419.0,STARLINK-4476,PAYLOAD,2024-08-13 02:39:58,15.08810744,0.0001985,53.2164,169.015,88.6209,271.501,-0.00044903,-7.422e-05,0.0,0 STARLINK-4476,1 53419U 22097AH  24226.11109481 -.00007422  00000-0 -44903-3 0  9993,2 53419  53.2164 169.0150 0001985  88.6209 271.5010 15.08810744111572,6917.97,95.439,541.208,538.462,0.0
53419.0,STARLINK-4476,PAYLOAD,2024-08-13 05:50:45,15.08789744,0.0001589,53.2165,168.4197,86.1304,273.987,-0.00072077,-0.00011725,0.0,0 STARLINK-4476,1 53419U 22097AH  24226.24358763 -.00011725  00000-0 -72077-3 0  9990,2 53419  53.2165 168.4197 0001589  86.1304 273.9870 15.08789744111593,6918.034,95.441,540.998,538.8,0.0
53419.0,STARLINK-4476,PAYLOAD,2024-08-13 20:09:14,15.08808795,0.0001462,53.2165,165.7431,82.9463,277.1695,-0.00025616,-4.359e-05,0.0,0 STARLINK-4476,1 53419U 22097AH  24226.83974834 -.00004359  00000-0 -25616-3 0  9990,2 53419  53.2165 165.7431 0001462  82.9463 277.1695 15.08808795111683,6917.976,95.44,540.852,538.829,0.0
53419.0,STARLINK-4476,PAYLOAD,2024-08-14 02:30:45,15.08836867,0.0001589,53.2168,164.5529,91.8733,268.2441,0.00012694,1.733e-05,0.0,0 STARLINK-4476,1 53419U 22097AH  24227.10469757  .00001733  00000-0  12694-3 0  9997,2 53419  53.2168 164.5529 0001589  91.8733 268.2441 15.08836867111726,6917.89,95.438,540.854,538.656,0.0
53419.0,STARLINK-4476,PAYLOAD,2024-08-15 00:46:09,15.08841188,0.0001544,53.216,160.3912,93.4919,266.625,0.00015758,2.221e-05,0.0,0 STARLINK-4476,1 53419U 22097AH  24228.03205044  .00002221  00000-0  15758-3 0  9994,2 53419  53.2160 160.3912 0001544  93.4919 266.6250 15.08841188112322,6917.877,95.437,540.81,538.674,0.0
53419.0,STARLINK-4476,PAYLOAD,2024-08-15 23:01:33,15.08844473,0.0001517,53.2161,156.2253,93.4617,266.6549,5.6802e-05,6.16e-06,0.0,0 STARLINK-4476,1 53419U 22097AH  24228.95941749  .00000616  00000-0  56802-4 0  9996,2 53419  53.2161 156.2253 0001517  93.4617 266.6549 15.08844473112466,6917.867,95.437,540.781,538.682,0.0
53419.0,STARLINK-4476,PAYLOAD,2024-08-16 02:12:18,15.08892568,0.000124,53.2165,155.6321,97.4552,262.6581,-0.00068333,-0.00011162,0.0,0 STARLINK-4476,1 53419U 22097AH  24229.09188367 -.00011162  00000-0 -68333-3 0  9992,2 53419  53.2165 155.6321 0001240  97.4552 262.6581 15.08892568112026,6917.72,95.434,540.443,538.727,0.0
53419.0,STARLINK-4476,PAYLOAD,2024-08-16 19:41:34,15.08844242,0.0001451,53.2165,152.3624,95.8568,264.2589,3.6988e-05,3.01e-06,0.0,0 STARLINK-4476,1 53419U 22097AH  24229.82053556  .00000301  00000-0  36988-4 0  9997,2 53419  53.2165 152.3624 0001451  95.8568 264.2589 15.08844242112133,6917.867,95.437,540.736,538.729,0.0
53419.0,STARLINK-4476,PAYLOAD,2024-08-17 05:13:52,15.08846752,0.0001385,53.2166,150.5764,86.9049,273.2102,4.4094e-05,4.14e-06,0.0,0 STARLINK-4476,1 53419U 22097AH  24230.21797232  .00000414  00000-0  44094-4 0  9990,2 53419  53.2166 150.5764 0001385  86.9049 273.2102 15.08846752112656,6917.86,95.437,540.683,538.767,0.0
53419.0,STARLINK-4476,PAYLOAD,2024-08-18 01:53:53,15.08839533,0.0001384,53.2171,146.7092,77.9465,282.1683,3.4333e-05,2.59e-06,0.0,0 STARLINK-4476,1 53419U 22097AH  24231.07909641  .00000259  00000-0  34333-4 0  9996,2 53419  53.2171 146.7092 0001384  77.9465 282.1683 15.08839533112320,6917.882,95.438,540.704,538.789,0.0
53419.0,STARLINK-4476,PAYLOAD,2024-08-18 22:33:55,15.08835699,0.0001412,53.2175,142.8426,79.3533,280.7618,-4.9926e-06,-3.67e-06,0.0,0 STARLINK-4476,1 53419U 22097AH  24231.94022107 -.00000367  00000-0 -49926-5 0  9992,2 53419  53.2175 142.8426 0001412  79.3533 280.7618 15.08835699112912,6917.894,95.438,540.735,538.782,0.0
